SHIJIAN-16 (SJ-16)      
1 39358U 13057A   25329.50287927  .00002438  00000+0  24322-3 0  9997
2 39358  74.9742  22.2671 0016992   0.8445 359.2768 14.91914229655964
SL-4 R/B                
1 39679U 14021B   25329.44349947  .00017522  00000+0  42093-3 0  9994
2 39679  51.6058 124.6116 0103137  84.0449 277.2277 15.36040242640232
ALOS-2                  
1 39766U 14029A   25329.56429858 -.00000675  00000+0 -83447-4 0  9994
2 39766  97.9240  64.6543 0001303  98.3482 261.7878 14.79474000621478
YAOGAN-29               
1 41038U 15069A   25329.54525958  .00000585  00000+0  78952-4 0  9993
2 41038  98.0235 352.6604 0001344  25.4425 334.6854 14.82854494540444
ASTRO-H (HITOMI)        
1 41337U 16012A   25329.23053071  .00003845  00000+0  23021-3 0  9990
2 41337  31.0009 310.2352 0009623   0.6007 359.4641 15.09191436536434
HXMT (HUIYAN)           
1 42758U 17034A   25329.46413308  .00007784  00000+0  40384-3 0  9998
2 42758  43.0134 235.4805 0033855 294.9856  64.7477 15.16018650466719
CZ-2C R/B               
1 43521U 18054D   25329.27048848  .00108199  00000+0  84306-3 0  9996
2 43521  35.1360 298.9963 0021013 325.5655  34.3714 15.70089799412306
SAOCOM 1A               
1 43641U 18076A   25329.52422231  .00000619  00000+0  84294-4 0  9998
2 43641  97.8859 154.1966 0001574  89.6428 270.4965 14.82149206385930
H-2A R/B                
1 43682U 18084L   25329.50460801  .00022300  00000+0  61903-3 0  9997
2 43682  98.8787 160.0240 0028707  25.2717 334.9920 15.36519848389755
SAOCOM 1B               
1 46265U 20059A   25329.48797106  .00000635  00000+0  86313-4 0  9990
2 46265  97.8863 153.2623 0001343  90.0047 270.1320 14.82157885283310
CSS (TIANHE)            
1 48274U 21035A   25329.41460525  .00022610  00000+0  29344-3 0  9999
2 48274  41.4665 121.8079 0010767 266.9055  93.0551 15.58231669261328
COSMOS 2550             
1 48865U 21056A   25329.51125380  .00000037  00000+0  69472-5 0  9993
2 48865  67.1436 356.0471 0008304 270.6658  89.3545 15.33825937247480
