CCSDS_OMM_VERS = 2.0
CREATION_DATE  = 
ORIGINATOR     = 

OBJECT_NAME    = SHIJIAN-16 (SJ-16)
OBJECT_ID      = 2013-057A
CENTER_NAME    = EARTH
REF_FRAME      = TEME
TIME_SYSTEM    = UTC
MEAN_ELEMENT_THEORY = SGP/SGP4

EPOCH          = 2025-11-25T12:04:08.768928
MEAN_MOTION    = 14.91914229
ECCENTRICITY   = .0016992
INCLINATION    = 74.9742
RA_OF_ASC_NODE = 22.2671
ARG_OF_PERICENTER = 0.8445
MEAN_ANOMALY   = 359.2768

EPHEMERIS_TYPE = 0
CLASSIFICATION_TYPE = U
NORAD_CAT_ID   = 39358
ELEMENT_SET_NO = 999
REV_AT_EPOCH   = 65596
BSTAR          = .24322E-3
MEAN_MOTION_DOT = .2438E-4
MEAN_MOTION_DDOT = 0

CCSDS_OMM_VERS = 2.0
CREATION_DATE  = 
ORIGINATOR     = 

OBJECT_NAME    = SL-4 R/B
OBJECT_ID      = 2014-021B
CENTER_NAME    = EARTH
REF_FRAME      = TEME
TIME_SYSTEM    = UTC
MEAN_ELEMENT_THEORY = SGP/SGP4

EPOCH          = 2025-11-25T10:38:38.354208
MEAN_MOTION    = 15.36040242
ECCENTRICITY   = .0103137
INCLINATION    = 51.6058
RA_OF_ASC_NODE = 124.6116
ARG_OF_PERICENTER = 84.0449
MEAN_ANOMALY   = 277.2277

EPHEMERIS_TYPE = 0
CLASSIFICATION_TYPE = U
NORAD_CAT_ID   = 39679
ELEMENT_SET_NO = 999
REV_AT_EPOCH   = 64023
BSTAR          = .42093E-3
MEAN_MOTION_DOT = .17522E-3
MEAN_MOTION_DDOT = 0

CCSDS_OMM_VERS = 2.0
CREATION_DATE  = 
ORIGINATOR     = 

OBJECT_NAME    = ALOS-2
OBJECT_ID      = 2014-029A
CENTER_NAME    = EARTH
REF_FRAME      = TEME
TIME_SYSTEM    = UTC
MEAN_ELEMENT_THEORY = SGP/SGP4

EPOCH          = 2025-11-25T13:32:35.397312
MEAN_MOTION    = 14.79474000
ECCENTRICITY   = .0001303
INCLINATION    = 97.9240
RA_OF_ASC_NODE = 64.6543
ARG_OF_PERICENTER = 98.3482
MEAN_ANOMALY   = 261.7878

EPHEMERIS_TYPE = 0
CLASSIFICATION_TYPE = U
NORAD_CAT_ID   = 39766
ELEMENT_SET_NO = 999
REV_AT_EPOCH   = 62147
BSTAR          = -.83447E-4
MEAN_MOTION_DOT = -.675E-5
MEAN_MOTION_DDOT = 0

CCSDS_OMM_VERS = 2.0
CREATION_DATE  = 
ORIGINATOR     = 

OBJECT_NAME    = YAOGAN-29
OBJECT_ID      = 2015-069A
CENTER_NAME    = EARTH
REF_FRAME      = TEME
TIME_SYSTEM    = UTC
MEAN_ELEMENT_THEORY = SGP/SGP4

EPOCH          = 2025-11-25T13:05:10.427712
MEAN_MOTION    = 14.82854494
ECCENTRICITY   = .0001344
INCLINATION    = 98.0235
RA_OF_ASC_NODE = 352.6604
ARG_OF_PERICENTER = 25.4425
MEAN_ANOMALY   = 334.6854

EPHEMERIS_TYPE = 0
CLASSIFICATION_TYPE = U
NORAD_CAT_ID   = 41038
ELEMENT_SET_NO = 999
REV_AT_EPOCH   = 54044
BSTAR          = .78952E-4
MEAN_MOTION_DOT = .585E-5
MEAN_MOTION_DDOT = 0

CCSDS_OMM_VERS = 2.0
CREATION_DATE  = 
ORIGINATOR     = 

OBJECT_NAME    = ASTRO-H (HITOMI)
OBJECT_ID      = 2016-012A
CENTER_NAME    = EARTH
REF_FRAME      = TEME
TIME_SYSTEM    = UTC
MEAN_ELEMENT_THEORY = SGP/SGP4

EPOCH          = 2025-11-25T05:31:57.853344
MEAN_MOTION    = 15.09191436
ECCENTRICITY   = .0009623
INCLINATION    = 31.0009
RA_OF_ASC_NODE = 310.2352
ARG_OF_PERICENTER = 0.6007
MEAN_ANOMALY   = 359.4641

EPHEMERIS_TYPE = 0
CLASSIFICATION_TYPE = U
NORAD_CAT_ID   = 41337
ELEMENT_SET_NO = 999
REV_AT_EPOCH   = 53643
BSTAR          = .23021E-3
MEAN_MOTION_DOT = .3845E-4
MEAN_MOTION_DDOT = 0

CCSDS_OMM_VERS = 2.0
CREATION_DATE  = 
ORIGINATOR     = 

OBJECT_NAME    = HXMT (HUIYAN)
OBJECT_ID      = 2017-034A
CENTER_NAME    = EARTH
REF_FRAME      = TEME
TIME_SYSTEM    = UTC
MEAN_ELEMENT_THEORY = SGP/SGP4

EPOCH          = 2025-11-25T11:08:21.098112
MEAN_MOTION    = 15.16018650
ECCENTRICITY   = .0033855
INCLINATION    = 43.0134
RA_OF_ASC_NODE = 235.4805
ARG_OF_PERICENTER = 294.9856
MEAN_ANOMALY   = 64.7477

EPHEMERIS_TYPE = 0
CLASSIFICATION_TYPE = U
NORAD_CAT_ID   = 42758
ELEMENT_SET_NO = 999
REV_AT_EPOCH   = 46671
BSTAR          = .40384E-3
MEAN_MOTION_DOT = .7784E-4
MEAN_MOTION_DDOT = 0

CCSDS_OMM_VERS = 2.0
CREATION_DATE  = 
ORIGINATOR     = 

OBJECT_NAME    = CZ-2C R/B
OBJECT_ID      = 2018-054D
CENTER_NAME    = EARTH
REF_FRAME      = TEME
TIME_SYSTEM    = UTC
MEAN_ELEMENT_THEORY = SGP/SGP4

EPOCH          = 2025-11-25T06:29:30.203808
MEAN_MOTION    = 15.70089799
ECCENTRICITY   = .0021014
INCLINATION    = 35.1360
RA_OF_ASC_NODE = 298.9963
ARG_OF_PERICENTER = 325.5655
MEAN_ANOMALY   = 34.3714

EPHEMERIS_TYPE = 0
CLASSIFICATION_TYPE = U
NORAD_CAT_ID   = 43521
ELEMENT_SET_NO = 999
REV_AT_EPOCH   = 41230
BSTAR          = .84306E-3
MEAN_MOTION_DOT = .108199E-2
MEAN_MOTION_DDOT = 0

CCSDS_OMM_VERS = 2.0
CREATION_DATE  = 
ORIGINATOR     = 

OBJECT_NAME    = SAOCOM 1A
OBJECT_ID      = 2018-076A
CENTER_NAME    = EARTH
REF_FRAME      = TEME
TIME_SYSTEM    = UTC
MEAN_ELEMENT_THEORY = SGP/SGP4

EPOCH          = 2025-11-25T12:34:52.807584
MEAN_MOTION    = 14.82149206
ECCENTRICITY   = .0001574
INCLINATION    = 97.8859
RA_OF_ASC_NODE = 154.1966
ARG_OF_PERICENTER = 89.6428
MEAN_ANOMALY   = 270.4965

EPHEMERIS_TYPE = 0
CLASSIFICATION_TYPE = U
NORAD_CAT_ID   = 43641
ELEMENT_SET_NO = 999
REV_AT_EPOCH   = 38593
BSTAR          = .84294E-4
MEAN_MOTION_DOT = .619E-5
MEAN_MOTION_DDOT = 0

CCSDS_OMM_VERS = 2.0
CREATION_DATE  = 
ORIGINATOR     = 

OBJECT_NAME    = H-2A R/B
OBJECT_ID      = 2018-084L
CENTER_NAME    = EARTH
REF_FRAME      = TEME
TIME_SYSTEM    = UTC
MEAN_ELEMENT_THEORY = SGP/SGP4

EPOCH          = 2025-11-25T12:06:38.132064
MEAN_MOTION    = 15.36519848
ECCENTRICITY   = .0028707
INCLINATION    = 98.8787
RA_OF_ASC_NODE = 160.0240
ARG_OF_PERICENTER = 25.2717
MEAN_ANOMALY   = 334.9920

EPHEMERIS_TYPE = 0
CLASSIFICATION_TYPE = U
NORAD_CAT_ID   = 43682
ELEMENT_SET_NO = 999
REV_AT_EPOCH   = 38975
BSTAR          = .61903E-3
MEAN_MOTION_DOT = .223E-3
MEAN_MOTION_DDOT = 0

CCSDS_OMM_VERS = 2.0
CREATION_DATE  = 
ORIGINATOR     = 

OBJECT_NAME    = SAOCOM 1B
OBJECT_ID      = 2020-059A
CENTER_NAME    = EARTH
REF_FRAME      = TEME
TIME_SYSTEM    = UTC
MEAN_ELEMENT_THEORY = SGP/SGP4

EPOCH          = 2025-11-25T11:42:40.699584
MEAN_MOTION    = 14.82157885
ECCENTRICITY   = .0001343
INCLINATION    = 97.8863
RA_OF_ASC_NODE = 153.2623
ARG_OF_PERICENTER = 90.0047
MEAN_ANOMALY   = 270.1320

EPHEMERIS_TYPE = 0
CLASSIFICATION_TYPE = U
NORAD_CAT_ID   = 46265
ELEMENT_SET_NO = 999
REV_AT_EPOCH   = 28331
BSTAR          = .86313E-4
MEAN_MOTION_DOT = .635E-5
MEAN_MOTION_DDOT = 0

CCSDS_OMM_VERS = 2.0
CREATION_DATE  = 
ORIGINATOR     = 

OBJECT_NAME    = CSS (TIANHE)
OBJECT_ID      = 2021-035A
CENTER_NAME    = EARTH
REF_FRAME      = TEME
TIME_SYSTEM    = UTC
MEAN_ELEMENT_THEORY = SGP/SGP4

EPOCH          = 2025-11-25T09:57:01.893600
MEAN_MOTION    = 15.58231669
ECCENTRICITY   = .0010767
INCLINATION    = 41.4665
RA_OF_ASC_NODE = 121.8079
ARG_OF_PERICENTER = 266.9055
MEAN_ANOMALY   = 93.0551

EPHEMERIS_TYPE = 0
CLASSIFICATION_TYPE = U
NORAD_CAT_ID   = 48274
ELEMENT_SET_NO = 999
REV_AT_EPOCH   = 26132
BSTAR          = .29344E-3
MEAN_MOTION_DOT = .2261E-3
MEAN_MOTION_DDOT = 0

CCSDS_OMM_VERS = 2.0
CREATION_DATE  = 
ORIGINATOR     = 

OBJECT_NAME    = COSMOS 2550
OBJECT_ID      = 2021-056A
CENTER_NAME    = EARTH
REF_FRAME      = TEME
TIME_SYSTEM    = UTC
MEAN_ELEMENT_THEORY = SGP/SGP4

EPOCH          = 2025-11-25T12:16:12.328320
MEAN_MOTION    = 15.33825937
ECCENTRICITY   = .0008304
INCLINATION    = 67.1436
RA_OF_ASC_NODE = 356.0471
ARG_OF_PERICENTER = 270.6658
MEAN_ANOMALY   = 89.3545

EPHEMERIS_TYPE = 0
CLASSIFICATION_TYPE = U
NORAD_CAT_ID   = 48865
ELEMENT_SET_NO = 999
REV_AT_EPOCH   = 24748
BSTAR          = .69472E-5
MEAN_MOTION_DOT = .37E-6
MEAN_MOTION_DDOT = 0

